0 SL-8 R/B
1 06683U 73037J   13282.12912082  .00000117  00000-0  10825-2 0  3872
2 06683 074.0180 281.4862 0070071 106.1799 299.5677 12.32144110814494
0 SL-8 R/B
1 06683U 73037J   13284.16445139  .00000107  00000-0  99842-3 0  3889
2 06683 074.0180 278.8685 0070073 103.1745 327.7719 12.32144684814742
0 SL-8 R/B
1 06683U 73037J   13286.45958752  .00000071  00000-0  70586-3 0  3898
2 06683 074.0181 275.9164 0070087 099.7853 068.4121 12.32145371815020
0 SL-8 R/B
1 06683U 73037J   13288.48401146  .00000069  00000-0  68441-3 0  3909
2 06683 074.0185 273.3125 0070074 096.8423 048.1990 12.32145856815274
0 SL-8 R/B
1 06683U 73037J   13290.51173259  .00000077  00000-0  75360-3 0  3915
2 06683 074.0189 270.7043 0070081 093.8648 042.6465 12.32145979815522
0 SL-8 R/B
1 06683U 73037J   13292.53690946  .00000083  00000-0  80435-3 0  3923
2 06683 074.0191 268.0997 0070096 090.8883 025.8110 12.32146047815771
0 SL-8 R/B
1 06683U 73037J   13294.86848558  .00000068  00000-0  67868-3 0  3934
2 06683 074.0193 265.1013 0070089 087.4691 288.0768 12.32146035816063
